#dP2021  5 17  6  0  0.00000000      96 __u+U ITR00 EXT  IAC
## 2158 108000.00000000   900.00000000 59351 0.2500000000000
+  116   C06C07C08C09C10C11C12C13C14C16C19C20C21C22C23C24C25
+        C26C27C28C29C30C32C33C34C35C36C37C38C39C40C41C42C43
+        C44C45C46E01E02E03E04E05E07E08E09E11E12E13E14E15E18
+        E19E21E24E25E26E27E30E31E33E36G01G02G03G04G05G06G07
+        G08G09G10G12G13G14G15G16G17G18G19G20G21G22G23G24G25
+        G26G27G28G29G30G31G32J01J02J03R01R02R03R04R05R07R08
+        R09R11R12R13R14R15R16R17R18R19R20R21R22R24  0  0  0
++         9 11 10 11  8  8 10  9  9  9  8  8  9  9  7  9  9
++         7 10  9  9 10  8  8  8  9  9  8 10 11 11  8 10  9
++        11  9  9  9  8  8  8  8  8  9  8  8  8  7  8  8  9
++         9  8  9 10  9  8  8  8  8  8  8  7  8  8  8  8  9
++         8  8  8  8  9  8  9  7  9  8  8  7  9  8  7  8  8
++         8  8  8  9  9  7  7  8 11 10 10  8  9  9  8  8  9
++         9 10  6 10  8  8  9  9  9  9  8  8  8  9  0  0  0
%c M  cc GPS ccc cccc cccc cccc cccc ccccc ccccc ccccc ccccc
%c cc cc ccc ccc cccc cccc cccc cccc ccccc ccccc ccccc ccccc
%f  0.0000000  0.000000000  0.00000000000  0.000000000000000
%f  0.0000000  0.000000000  0.00000000000  0.000000000000000
%i    0    0    0    0      0      0      0      0         0
%i    0    0    0    0      0      0      0      0         0
/* IAC                                ULTRA-RAPID PREDICTION
/* S/V CLOCKS ARE ALIGNED TO GNSS TIME                      
/* G:C1WC2W R:C1PC2P E:C1XC5X C:C2IC6I J:C1CC2S             
/* PCV:IGS14_2148 OL/AL:FES2004  NONE     YN ORB:CoN CLK:CoN
*  2021 05 18  1 15  0.00000000
PC06 -16038.493974  37853.245211  -7626.860469    396.793595
PC07 -10437.452013  25433.893117  32300.116624    996.641423
PC08 -24732.920623  22805.086054 -25550.863747   -890.503904
PC09  -7324.992515  40647.819095   7524.112759    516.023096
PC10   5150.151869  32394.324616  26936.575545    -41.386485
PC11 -16834.725922   2949.518558  22123.516989    346.993001
PC12  -8522.712012 -16232.474265  21061.438861    879.650813
PC13 -10793.780585  24930.912103 -32215.969780    264.820346
PC14 -21083.580389  -7203.484299 -16734.876737    759.509962
PC16 -13997.995052  39286.917612  -5198.053560   -843.830141
PC19  17403.188899  -2536.636673  21703.506703    838.740075
PC20  21452.682115  14435.362173  10562.555492   -912.553584
PC21 -12763.474225 -23638.962568   7523.805895   -940.415889
PC22   3178.604042 -18556.226926  20596.391333   -955.703839
PC23 -13656.020006  15653.702265  18637.722391   -909.903900
PC24 -23765.919265  -5930.023033 -13395.697008   -854.705408
PC25 -26373.376928   8038.199862   4371.265067   -915.433762
PC26  -8414.126039 -14590.300838 -22261.413682    905.582679
PC27   2129.239526  23275.899625 -15253.149921    533.372196
PC28 -11164.308987  25535.920085   1459.776305    -73.206029
PC29  17362.328714 -13444.977778 -17233.513328    393.686459
PC30  14169.527975   7429.806379 -22870.546206    467.353104
PC32  12991.887949  23545.260433  -7463.750993   -932.427767
PC33 -17413.708810   2592.376883 -21634.616708   -937.924807
PC34 -14483.584376  -6722.579353  22874.495318   -671.113679
PC35  10491.776202 -25818.181610  -1803.762406   -275.962998
PC36  26666.016298  -7180.135280  -4001.941403   -726.694438
PC37   7025.419804  15064.280325  22431.175858   -890.981495
PC38 -18847.873774  25538.236392 -27802.316352    149.404961
PC39  -9927.549341  40763.390034  -3182.028133     31.143083
PC40    423.253529  28489.798666  31148.093567    161.984158
PC41  -3355.882666  18412.923550 -20645.129981   -944.456709
PC42 -21346.247519 -15005.797384  -9818.860160   -914.943980
PC43 -17548.740675  12812.712960  17486.394052   -735.023411
PC44  -2797.851700 -23377.238484  14996.901640    193.238397
PC45  13514.575546 -15603.364814 -18766.451458    442.928071
PC46  24303.372870   5188.492652  12670.630596    266.153200
PE01  21464.331782  -6627.751322 -19275.108951  -1110.008126
PE02 -21382.631857   6702.687881  19342.799478    219.791872
PE03 -13063.412806  14438.077474 -22293.991229   -432.054535
PE04    840.724381 -28043.772253   9441.630936   -773.156621
PE05 -17822.634146  -7888.599543 -22268.107295   -280.150270
PE07  12149.835057  25358.211189   9280.249881   -538.936105
PE08   -396.802440  28148.172623  -9165.666457   6000.456083
PE09 -12288.667657 -25202.863333  -9449.027178   5664.298825
PE11  -7792.645845 -14603.266189  24531.002158   5967.276574
PE12  11324.646819 -23212.238194  14479.744165   5205.459452
PE13   7420.219816  14812.079438 -24527.157619    416.536007
PE14  -1199.013308 -25011.444774   2757.491528  -1434.656205
PE15 -11225.517146  23201.820090 -14542.679315    813.717801
PE18  11237.277245  25335.615696 -15425.661564  -1570.461608
PE19  13987.995445 -12060.087317  23142.703466    279.516083
PE21  28602.054824   6723.069387  -3595.533880   -665.502779
PE24 -18671.047524 -17098.658548 -15366.351401   -905.763438
PE25 -28594.688627  -6857.273023   3402.468278   -534.147095
PE26  22110.508778  -2823.096254 -19477.600583   1798.571466
PE27  19431.434367  16751.713073  14759.853912    -34.656124
PE30  -2264.602691  16622.554317  24375.721495   2937.020567
PE31   1087.847462 -16859.041696 -24300.687825   -481.271205
PE33  23228.553192 -17922.517259  -3976.749897   -468.718669
PE36 -21648.574802   2266.998029  20053.455012   -208.526393
PG01  -6957.289949  18131.223416 -18213.716127    686.032943
PG02  22231.275889 -14415.313498  -1536.257089   -605.094617
PG03   3244.974888  17413.568676 -19909.003100   -166.858291
PG04  -1201.654443  26477.512771  -1140.863432   -196.683507
PG05  12841.468325 -10008.356336  20867.193245    -42.250373
PG06  23051.929027  -4102.888336 -12540.675352     16.829893
PG07   8156.018277  13268.132534  21867.709065    153.800869
PG08  -6453.630523  23324.745722  10569.640074    -21.604075
PG09   7385.996503  23762.739789   9198.105458   -346.108349
PG10 -23962.848868 -11600.263763  -1996.007986   -124.079840
PG12     85.024627 -16834.341210 -20833.701145    -42.527274
PG13  12895.383765 -16748.037440  15867.447220    133.357972
PG14  23278.753481  12686.201959  -1894.900467     84.339375
PG15   4017.233447 -24087.526221   9637.711091   -148.675294
PG16 -17173.027754   4505.197118  19653.644621   -326.863514
PG17  12780.875779  11455.554812 -19842.846980    444.072597
PG18 -11068.627909 -10782.253285  21599.210219    350.108007
PG19  14808.406755   1832.623117 -22260.239800      1.412479
PG20   2644.141793 -15661.200670  21262.614972    522.082610
PG21 -13822.470397  19172.849593 -10900.254717    118.864357
PG22  -6933.773815  14080.282852 -21229.272538   -611.657472
PG23 -18875.516795 -16581.047026   8670.053794    105.784111
PG24  10614.861767 -19952.685439 -13878.082713     83.987415
PG25 -13050.453575 -18564.179444 -14283.993515    139.157644
PG26 -23203.558763   -914.988683  13071.303820     86.687131
PG27 -12239.425777  14214.943301  18474.484497   -131.872740
PG28  23273.668735   9920.481539  -7224.703813    569.644972
PG29  -4892.383404 -24334.233894   9335.644579   -348.848882
PG30  19546.256901   3878.684577  17730.937982   -427.433848
PG31 -24268.041848   5819.534938  -9823.337615   -117.892677
PG32 -14618.771575  -8443.214258 -20432.429933     21.007318
PJ01 -20820.558629  21436.535271 -25175.037507   -380.528027
PJ02 -28152.754287  22602.685688  26671.729576      0.050570
PJ03 -30909.212427  26535.130569  15836.251469     -5.707531
PR01  11846.739620  -1251.078542  22564.880929     79.621857
PR02  -1153.077658 -19017.118695  17039.107344    479.021251
PR03 -11750.863181 -22636.653243   1285.010284     36.136750
PR04 -15471.492684 -13551.960513 -15058.063368     87.259169
PR05 -10618.075347   3032.889100 -22978.442428     71.937686
PR07  12060.098956  22446.734677   -467.452608    -42.451538
PR08  15575.268728  13364.103492  15197.278793    -59.040769
PR09  -7989.102855  10651.480057  21758.845690     -6.606281
PR11  23946.400077   3830.551942   7941.408319     -4.858025
PR12  22939.407582  -4481.333128 -10169.776031    229.775894
PR13   8759.694638 -10286.459871 -21652.739879    -54.881212
PR14 -11302.122388 -10061.491426 -20519.563580     64.381508
PR15 -24074.058395  -3982.506693  -7411.277621    103.783453
PR16 -22384.282566   5522.910810  11030.038609    -15.181922
PR17    259.139853 -16984.469588  19018.992748    424.954052
PR18 -10577.376114  -2588.926338  23071.336876     76.895169
PR19 -16189.360414  12204.262045  15474.475187   -144.135635
PR20 -12451.661769  21931.648954  -3657.250041    -49.286901
PR21    454.959023  16180.356578 -19727.098862   -209.736446
PR22  11166.996315   1439.864925 -22918.090784   -113.211841
PR24  11688.443540 -22246.443069   4361.703554     43.052386
EOF
